ONEWEB-0427             
1 50499U 21132AG  25308.60565657  .00000014  00000+0  32382-5 0  9991
2 50499  87.9226  20.0357 0001687  94.8334 265.2991 13.18687111192017
ONEWEB-0429             
1 50500U 21132AH  25308.66835029 -.00000049  00000+0 -15638-3 0  9996
2 50500  87.9229  20.0545 0001931 102.4122 257.7227 13.18687514191996
ONEWEB-0430             
1 50501U 21132AJ  25308.65680265 -.00000002  00000+0 -38546-4 0  9999
2 50501  87.9232  20.0514 0002072  97.3007 262.8360 13.18687169192035
ONEWEB-0432             
1 50502U 21132AK  25308.61252471  .00000031  00000+0  46791-4 0  9991
2 50502  87.9222  20.0345 0001888  71.9666 288.1672 13.18671927191985
ONEWEB-0440             
1 50503U 21132AL  25308.67660023 -.00000010  00000+0 -58934-4 0  9995
2 50503  87.9227  20.0380 0001854 113.1276 247.0051 13.18686578191982
ONEWEB-0450             
1 50504U 21132AM  25308.59425508  .00000033  00000+0  52101-4 0  9997
2 50504  87.9230  20.0777 0002143 103.0589 257.0782 13.18684006192004
ONEWEB-0410             
1 51622U 22012A   25308.74996098 -.00000001  00000+0 -35456-4 0  9992
2 51622  87.9137  50.4702 0000616  46.4000 313.7183 13.17650832184148
ONEWEB-0411             
1 51623U 22012B   25308.82739955  .00000521  00000+0  14556-2 0  9990
2 51623  87.8785  80.9914 0002097  91.0108 269.1259 13.10371814179909
